*******************************************************************************
Ephemeris / WWW_USER Mon Mar 10 08:36:58 2025 Pasadena, USA      / Horizons    
*******************************************************************************
Target body name: (2017 UW51)                     {source: JPL#9}
Center body name: Earth (399)                     {source: DE441}
Center-site name: Mauna Kea
*******************************************************************************
Start time      : A.D. 2018-Oct-04 04:17:00.0000 UT      
Stop  time      : A.D. 2018-Oct-04 16:04:00.0000 UT      
Step-size       : 1 minutes
*******************************************************************************
Target pole/equ : undefined
Target radii    : undefined                                                    
Center geodetic : 204.5278, 19.8260847, 4.21024   {E-lon(deg),Lat(deg),Alt(km)}
Center cylindric: 204.5278, 6006.35451, 2151.0229 {E-lon(deg),Dxy(km),Dz(km)}
Center pole/equ : ITRF93                          {East-longitude positive}
Center radii    : 6378.137, 6378.137, 6356.752 km {Equator_a, b, pole_c}       
Target primary  : Sun
Vis. interferer : MOON (R_eq= 1737.400) km        {source: DE441}
Rel. light bend : Sun                             {source: DE441}
Rel. lght bnd GM: 1.3271E+11 km^3/s^2                                          
Small-body perts: Yes                             {source: SB441-N16}
Atmos refraction: NO (AIRLESS)
RA format       : HMS
Time format     : CAL 
Calendar mode   : Mixed Julian/Gregorian
RTS-only print  : NO       
EOP file        : eop.250307.p250603                                           
EOP coverage    : DATA-BASED 1962-JAN-20 TO 2025-MAR-07. PREDICTS-> 2025-JUN-02
Units conversion: 1 au= 149597870.700 km, c= 299792.458 km/s, 1 day= 86400.0 s 
Table cut-offs 1: Elevation (-90.0deg=NO ),Airmass (>38.000=NO), Daylight (YES)
Table cut-offs 2: Solar elongation (  0.0,180.0=NO ),Local Hour Angle( 0.0=NO )
Table cut-offs 3: RA/DEC angular rate (     0.0=NO )                           
*******************************************************************************
Initial IAU76/J2000 heliocentric ecliptic osculating elements (au, days, deg.):
  EPOCH=  2458075.5 ! 2017-Nov-18.00 (TDB)         Residual RMS= .20188        
   EC= .977323227404683    QR= 3.132710376610715   TP= 2458155.1551369466      
   OM= 241.7154477774366   W=  216.6888678209022   IN= 144.2025603349357       
  Equivalent ICRF heliocentric cartesian coordinates (au, au/d):
   X= 2.139353138138251E+00  Y= 2.375029509283225E+00  Z= 4.232007070438896E-01
  VX= 5.707101564767909E-03 VY=-6.350221743649190E-03 VZ=-1.041670648532765E-02
Asteroid physical parameters (km, seconds, rotational period in hours):        
   GM= n.a.                RAD= n.a.               ROTPER= n.a.                
   H= 15.3                 G= .150                 B-V= n.a.                   
                           ALBEDO= n.a.            STYP= n.a.                  
*******************************************************************************
 Date__(UT)__HR:MN     R.A._________(ICRF)_________DEC
******************************************************
$$SOE
 2018-Oct-04 08:23  t  22 51 21.519211 -54 51 34.45095
 2018-Oct-04 08:24     22 51 21.401863 -54 51 34.47059
 2018-Oct-04 08:25     22 51 21.284516 -54 51 34.49017
 2018-Oct-04 08:26     22 51 21.167171 -54 51 34.50970
 2018-Oct-04 08:27     22 51 21.049827 -54 51 34.52917
 2018-Oct-04 08:28     22 51 20.932485 -54 51 34.54860
 2018-Oct-04 08:29     22 51 20.815144 -54 51 34.56796
 2018-Oct-04 08:30     22 51 20.697804 -54 51 34.58728
 2018-Oct-04 08:31     22 51 20.580466 -54 51 34.60654
 2018-Oct-04 08:32     22 51 20.463130 -54 51 34.62576
 2018-Oct-04 08:33     22 51 20.345795 -54 51 34.64491
 2018-Oct-04 08:34     22 51 20.228461 -54 51 34.66402
 2018-Oct-04 08:35     22 51 20.111129 -54 51 34.68307
 2018-Oct-04 08:36     22 51 19.993799 -54 51 34.70207
 2018-Oct-04 08:37     22 51 19.876470 -54 51 34.72101
 2018-Oct-04 08:38     22 51 19.759143 -54 51 34.73991
 2018-Oct-04 08:39     22 51 19.641817 -54 51 34.75874
 2018-Oct-04 08:40     22 51 19.524493 -54 51 34.77753
 2018-Oct-04 08:41     22 51 19.407171 -54 51 34.79627
 2018-Oct-04 08:42     22 51 19.289851 -54 51 34.81495
 2018-Oct-04 08:43     22 51 19.172532 -54 51 34.83357
 2018-Oct-04 08:44     22 51 19.055215 -54 51 34.85215
 2018-Oct-04 08:45     22 51 18.937900 -54 51 34.87067
 2018-Oct-04 08:46     22 51 18.820587 -54 51 34.88914
 2018-Oct-04 08:47     22 51 18.703276 -54 51 34.90756
 2018-Oct-04 08:48     22 51 18.585966 -54 51 34.92592
 2018-Oct-04 08:49     22 51 18.468659 -54 51 34.94423
 2018-Oct-04 08:50     22 51 18.351353 -54 51 34.96249
 2018-Oct-04 08:51     22 51 18.234049 -54 51 34.98070
 2018-Oct-04 08:52     22 51 18.116747 -54 51 34.99885
 2018-Oct-04 08:53     22 51 17.999448 -54 51 35.01695
 2018-Oct-04 08:54     22 51 17.882150 -54 51 35.03500
 2018-Oct-04 08:55     22 51 17.764854 -54 51 35.05299
 2018-Oct-04 08:56     22 51 17.647561 -54 51 35.07093
 2018-Oct-04 08:57     22 51 17.530269 -54 51 35.08882
 2018-Oct-04 08:58     22 51 17.412980 -54 51 35.10666
 2018-Oct-04 08:59     22 51 17.295692 -54 51 35.12444
 2018-Oct-04 09:00     22 51 17.178407 -54 51 35.14218
 2018-Oct-04 09:01     22 51 17.061125 -54 51 35.15986
 2018-Oct-04 09:02     22 51 16.943844 -54 51 35.17748
 2018-Oct-04 09:03     22 51 16.826565 -54 51 35.19506
 2018-Oct-04 09:04     22 51 16.709289 -54 51 35.21258
 2018-Oct-04 09:05     22 51 16.592015 -54 51 35.23005
 2018-Oct-04 09:06     22 51 16.474744 -54 51 35.24747
 2018-Oct-04 09:07     22 51 16.357474 -54 51 35.26483
 2018-Oct-04 09:08     22 51 16.240208 -54 51 35.28215
 2018-Oct-04 09:09     22 51 16.122943 -54 51 35.29941
 2018-Oct-04 09:10     22 51 16.005681 -54 51 35.31662
 2018-Oct-04 09:11     22 51 15.888421 -54 51 35.33377
 2018-Oct-04 09:12     22 51 15.771164 -54 51 35.35088
 2018-Oct-04 09:13     22 51 15.653909 -54 51 35.36793
 2018-Oct-04 09:14     22 51 15.536657 -54 51 35.38493
 2018-Oct-04 09:15     22 51 15.419407 -54 51 35.40188
 2018-Oct-04 09:16     22 51 15.302160 -54 51 35.41877
 2018-Oct-04 09:17     22 51 15.184916 -54 51 35.43562
 2018-Oct-04 09:18     22 51 15.067674 -54 51 35.45241
 2018-Oct-04 09:19     22 51 14.950434 -54 51 35.46915
 2018-Oct-04 09:20     22 51 14.833198 -54 51 35.48584
 2018-Oct-04 09:21     22 51 14.715964 -54 51 35.50248
 2018-Oct-04 09:22     22 51 14.598732 -54 51 35.51906
 2018-Oct-04 09:23     22 51 14.481504 -54 51 35.53559
 2018-Oct-04 09:24     22 51 14.364278 -54 51 35.55208
 2018-Oct-04 09:25     22 51 14.247055 -54 51 35.56851
 2018-Oct-04 09:26     22 51 14.129834 -54 51 35.58489
 2018-Oct-04 09:27     22 51 14.012617 -54 51 35.60121
 2018-Oct-04 09:28     22 51 13.895402 -54 51 35.61749
 2018-Oct-04 09:29     22 51 13.778190 -54 51 35.63371
 2018-Oct-04 09:30     22 51 13.660981 -54 51 35.64989
 2018-Oct-04 09:31     22 51 13.543775 -54 51 35.66601
 2018-Oct-04 09:32     22 51 13.426572 -54 51 35.68208
 2018-Oct-04 09:33     22 51 13.309372 -54 51 35.69810
 2018-Oct-04 09:34     22 51 13.192175 -54 51 35.71407
 2018-Oct-04 09:35     22 51 13.074980 -54 51 35.72999
 2018-Oct-04 09:36     22 51 12.957789 -54 51 35.74585
 2018-Oct-04 09:37     22 51 12.840601 -54 51 35.76167
 2018-Oct-04 09:38     22 51 12.723416 -54 51 35.77743
 2018-Oct-04 09:39     22 51 12.606234 -54 51 35.79315
 2018-Oct-04 09:40     22 51 12.489055 -54 51 35.80881
 2018-Oct-04 09:41     22 51 12.371879 -54 51 35.82442
 2018-Oct-04 09:42     22 51 12.254707 -54 51 35.83998
 2018-Oct-04 09:43     22 51 12.137537 -54 51 35.85549
 2018-Oct-04 09:44     22 51 12.020371 -54 51 35.87095
 2018-Oct-04 09:45     22 51 11.903208 -54 51 35.88636
 2018-Oct-04 09:46     22 51 11.786048 -54 51 35.90172
 2018-Oct-04 09:47     22 51 11.668892 -54 51 35.91703
 2018-Oct-04 09:48     22 51 11.551739 -54 51 35.93229
 2018-Oct-04 09:49     22 51 11.434589 -54 51 35.94750
 2018-Oct-04 09:50     22 51 11.317442 -54 51 35.96266
 2018-Oct-04 09:51     22 51 11.200299 -54 51 35.97776
 2018-Oct-04 09:52     22 51 11.083160 -54 51 35.99282
 2018-Oct-04 09:53     22 51 10.966023 -54 51 36.00783
 2018-Oct-04 09:54     22 51 10.848890 -54 51 36.02279
 2018-Oct-04 09:55     22 51 10.731761 -54 51 36.03770
 2018-Oct-04 09:56     22 51 10.614635 -54 51 36.05256
 2018-Oct-04 09:57     22 51 10.497512 -54 51 36.06737
 2018-Oct-04 09:58     22 51 10.380393 -54 51 36.08212
 2018-Oct-04 09:59     22 51 10.263278 -54 51 36.09683
 2018-Oct-04 10:00     22 51 10.146166 -54 51 36.11149
 2018-Oct-04 10:01     22 51 10.029058 -54 51 36.12611
 2018-Oct-04 10:02     22 51 09.911953 -54 51 36.14067
 2018-Oct-04 10:03     22 51 09.794852 -54 51 36.15518
 2018-Oct-04 10:04     22 51 09.677755 -54 51 36.16964
 2018-Oct-04 10:05     22 51 09.560661 -54 51 36.18406
 2018-Oct-04 10:06     22 51 09.443571 -54 51 36.19842
 2018-Oct-04 10:07     22 51 09.326485 -54 51 36.21274
 2018-Oct-04 10:08     22 51 09.209402 -54 51 36.22700
 2018-Oct-04 10:09     22 51 09.092324 -54 51 36.24122
 2018-Oct-04 10:10     22 51 08.975249 -54 51 36.25539
 2018-Oct-04 10:11     22 51 08.858177 -54 51 36.26951
 2018-Oct-04 10:12     22 51 08.741110 -54 51 36.28358
 2018-Oct-04 10:13     22 51 08.624047 -54 51 36.29761
 2018-Oct-04 10:14     22 51 08.506987 -54 51 36.31158
 2018-Oct-04 10:15     22 51 08.389931 -54 51 36.32551
 2018-Oct-04 10:16     22 51 08.272879 -54 51 36.33939
 2018-Oct-04 10:17     22 51 08.155832 -54 51 36.35322
 2018-Oct-04 10:18     22 51 08.038788 -54 51 36.36700
 2018-Oct-04 10:19     22 51 07.921748 -54 51 36.38073
 2018-Oct-04 10:20     22 51 07.804712 -54 51 36.39442
 2018-Oct-04 10:21     22 51 07.687680 -54 51 36.40806
 2018-Oct-04 10:22     22 51 07.570652 -54 51 36.42165
 2018-Oct-04 10:23     22 51 07.453628 -54 51 36.43519
 2018-Oct-04 10:24     22 51 07.336608 -54 51 36.44869
 2018-Oct-04 10:25     22 51 07.219593 -54 51 36.46213
